CCSDS_OMM_VERS = 2.0
CREATION_DATE  = 
ORIGINATOR     = 

OBJECT_NAME    = STARLINK-36269
OBJECT_ID      = 2026-008AD
CENTER_NAME    = EARTH
REF_FRAME      = TEME
TIME_SYSTEM    = UTC
MEAN_ELEMENT_THEORY = SGP/SGP4

EPOCH          = 2026-01-30T04:00:01.999584
MEAN_MOTION    = 15.78384592
ECCENTRICITY   = .0001405
INCLINATION    = 43.0007
RA_OF_ASC_NODE = 66.8971
ARG_OF_PERICENTER = 267.9572
MEAN_ANOMALY   = 83.9449

EPHEMERIS_TYPE = 0
CLASSIFICATION_TYPE = U
NORAD_CAT_ID   = 67472
ELEMENT_SET_NO = 999
REV_AT_EPOCH   = 362
BSTAR          = -.10921E-1
MEAN_MOTION_DOT = -.1720058E-1
MEAN_MOTION_DDOT = 0

CCSDS_OMM_VERS = 2.0
CREATION_DATE  = 
ORIGINATOR     = 

OBJECT_NAME    = STARLINK-36408
OBJECT_ID      = 2026-008AE
CENTER_NAME    = EARTH
REF_FRAME      = TEME
TIME_SYSTEM    = UTC
MEAN_ELEMENT_THEORY = SGP/SGP4

EPOCH          = 2026-01-30T04:00:01.999584
MEAN_MOTION    = 15.77224547
ECCENTRICITY   = .0001391
INCLINATION    = 43.0008
RA_OF_ASC_NODE = 66.8796
ARG_OF_PERICENTER = 268.9805
MEAN_ANOMALY   = 90.0090

EPHEMERIS_TYPE = 0
CLASSIFICATION_TYPE = U
NORAD_CAT_ID   = 67473
ELEMENT_SET_NO = 999
REV_AT_EPOCH   = 362
BSTAR          = -.12205E-1
MEAN_MOTION_DOT = -.1810735E-1
MEAN_MOTION_DDOT = 0

CCSDS_OMM_VERS = 2.0
CREATION_DATE  = 
ORIGINATOR     = 

OBJECT_NAME    = ALSAT-3A
OBJECT_ID      = 2026-009A
CENTER_NAME    = EARTH
REF_FRAME      = TEME
TIME_SYSTEM    = UTC
MEAN_ELEMENT_THEORY = SGP/SGP4

EPOCH          = 2026-01-30T03:00:28.175904
MEAN_MOTION    = 15.03046815
ECCENTRICITY   = .0099646
INCLINATION    = 97.1797
RA_OF_ASC_NODE = 103.5020
ARG_OF_PERICENTER = 170.8226
MEAN_ANOMALY   = 189.4853

EPHEMERIS_TYPE = 0
CLASSIFICATION_TYPE = U
NORAD_CAT_ID   = 67474
ELEMENT_SET_NO = 999
REV_AT_EPOCH   = 225
BSTAR          = .38809E-3
MEAN_MOTION_DOT = .5768E-4
MEAN_MOTION_DDOT = 0

CCSDS_OMM_VERS = 2.0
CREATION_DATE  = 
ORIGINATOR     = 

OBJECT_NAME    = CZ-2C R/B
OBJECT_ID      = 2026-009B
CENTER_NAME    = EARTH
REF_FRAME      = TEME
TIME_SYSTEM    = UTC
MEAN_ELEMENT_THEORY = SGP/SGP4

EPOCH          = 2026-01-30T02:56:56.114880
MEAN_MOTION    = 15.23287583
ECCENTRICITY   = .0011666
INCLINATION    = 97.4705
RA_OF_ASC_NODE = 104.8289
ARG_OF_PERICENTER = 203.6513
MEAN_ANOMALY   = 156.4189

EPHEMERIS_TYPE = 0
CLASSIFICATION_TYPE = U
NORAD_CAT_ID   = 67475
ELEMENT_SET_NO = 999
REV_AT_EPOCH   = 228
BSTAR          = .43636E-3
MEAN_MOTION_DOT = .10301E-3
MEAN_MOTION_DDOT = 0

CCSDS_OMM_VERS = 2.0
CREATION_DATE  = 
ORIGINATOR     = 

OBJECT_NAME    = TIANQI-37
OBJECT_ID      = 2026-010A
CENTER_NAME    = EARTH
REF_FRAME      = TEME
TIME_SYSTEM    = UTC
MEAN_ELEMENT_THEORY = SGP/SGP4

EPOCH          = 2026-01-30T03:50:31.217856
MEAN_MOTION    = 14.13726592
ECCENTRICITY   = .0012265
INCLINATION    = 44.9837
RA_OF_ASC_NODE = 338.1971
ARG_OF_PERICENTER = 23.2829
MEAN_ANOMALY   = 336.8563

EPHEMERIS_TYPE = 0
CLASSIFICATION_TYPE = U
NORAD_CAT_ID   = 67476
ELEMENT_SET_NO = 999
REV_AT_EPOCH   = 203
BSTAR          = .33324E-3
MEAN_MOTION_DOT = .501E-5
MEAN_MOTION_DDOT = 0

CCSDS_OMM_VERS = 2.0
CREATION_DATE  = 
ORIGINATOR     = 

OBJECT_NAME    = TIANQI-38
OBJECT_ID      = 2026-010B
CENTER_NAME    = EARTH
REF_FRAME      = TEME
TIME_SYSTEM    = UTC
MEAN_ELEMENT_THEORY = SGP/SGP4

EPOCH          = 2026-01-30T03:47:39.101280
MEAN_MOTION    = 14.14079822
ECCENTRICITY   = .0011286
INCLINATION    = 44.9799
RA_OF_ASC_NODE = 338.1815
ARG_OF_PERICENTER = 26.5629
MEAN_ANOMALY   = 333.5786

EPHEMERIS_TYPE = 0
CLASSIFICATION_TYPE = U
NORAD_CAT_ID   = 67477
ELEMENT_SET_NO = 999
REV_AT_EPOCH   = 203
BSTAR          = .36326E-3
MEAN_MOTION_DOT = .563E-5
MEAN_MOTION_DDOT = 0

CCSDS_OMM_VERS = 2.0
CREATION_DATE  = 
ORIGINATOR     = 

OBJECT_NAME    = TIANQI-39
OBJECT_ID      = 2026-010C
CENTER_NAME    = EARTH
REF_FRAME      = TEME
TIME_SYSTEM    = UTC
MEAN_ELEMENT_THEORY = SGP/SGP4

EPOCH          = 2026-01-30T03:47:42.208224
MEAN_MOTION    = 14.13517055
ECCENTRICITY   = .0014476
INCLINATION    = 44.9851
RA_OF_ASC_NODE = 338.1862
ARG_OF_PERICENTER = 35.2219
MEAN_ANOMALY   = 324.9574

EPHEMERIS_TYPE = 0
CLASSIFICATION_TYPE = U
NORAD_CAT_ID   = 67478
ELEMENT_SET_NO = 999
REV_AT_EPOCH   = 203
BSTAR          = .23656E-3
MEAN_MOTION_DOT = .315E-5
MEAN_MOTION_DDOT = 0

CCSDS_OMM_VERS = 2.0
CREATION_DATE  = 
ORIGINATOR     = 

OBJECT_NAME    = TIANQI-40
OBJECT_ID      = 2026-010D
CENTER_NAME    = EARTH
REF_FRAME      = TEME
TIME_SYSTEM    = UTC
MEAN_ELEMENT_THEORY = SGP/SGP4

EPOCH          = 2026-01-27T07:57:11.306304
MEAN_MOTION    = 14.14461443
ECCENTRICITY   = .00116095
INCLINATION    = 44.9852
RA_OF_ASC_NODE = 351.0701
ARG_OF_PERICENTER = 6.7830
MEAN_ANOMALY   = 353.3164

EPHEMERIS_TYPE = 0
CLASSIFICATION_TYPE = U
NORAD_CAT_ID   = 67479
ELEMENT_SET_NO = 999
REV_AT_EPOCH   = 163
BSTAR          = .21354355E-3
MEAN_MOTION_DOT = .279E-5
MEAN_MOTION_DDOT = 0

CCSDS_OMM_VERS = 2.0
CREATION_DATE  = 
ORIGINATOR     = 

OBJECT_NAME    = SZ-20 MODULE
OBJECT_ID      = 2025-082C
CENTER_NAME    = EARTH
REF_FRAME      = TEME
TIME_SYSTEM    = UTC
MEAN_ELEMENT_THEORY = SGP/SGP4

EPOCH          = 2026-01-30T03:59:09.020832
MEAN_MOTION    = 15.62028588
ECCENTRICITY   = .0006337
INCLINATION    = 41.4796
RA_OF_ASC_NODE = 82.1898
ARG_OF_PERICENTER = 47.3175
MEAN_ANOMALY   = 312.8198

EPHEMERIS_TYPE = 0
CLASSIFICATION_TYPE = U
NORAD_CAT_ID   = 67481
ELEMENT_SET_NO = 999
REV_AT_EPOCH   = 27159
BSTAR          = .31425E-3
MEAN_MOTION_DOT = .28043E-3
MEAN_MOTION_DDOT = 0

CCSDS_OMM_VERS = 2.0
CREATION_DATE  = 
ORIGINATOR     = 

OBJECT_NAME    = TRANSPORTER-15DT
OBJECT_ID      = 2025-276DT
CENTER_NAME    = EARTH
REF_FRAME      = TEME
TIME_SYSTEM    = UTC
MEAN_ELEMENT_THEORY = SGP/SGP4

EPOCH          = 2026-01-30T04:14:42.645408
MEAN_MOTION    = 14.97659769
ECCENTRICITY   = .0010638
INCLINATION    = 97.5422
RA_OF_ASC_NODE = 105.6306
ARG_OF_PERICENTER = 231.6962
MEAN_ANOMALY   = 128.3304

EPHEMERIS_TYPE = 0
CLASSIFICATION_TYPE = U
NORAD_CAT_ID   = 67483
ELEMENT_SET_NO = 999
REV_AT_EPOCH   = 195
BSTAR          = .13245E-3
MEAN_MOTION_DOT = .1495E-4
MEAN_MOTION_DDOT = 0

CCSDS_OMM_VERS = 2.0
CREATION_DATE  = 
ORIGINATOR     = 

OBJECT_NAME    = STARLINK-36551
OBJECT_ID      = 2026-012A
CENTER_NAME    = EARTH
REF_FRAME      = TEME
TIME_SYSTEM    = UTC
MEAN_ELEMENT_THEORY = SGP/SGP4

EPOCH          = 2026-01-30T04:00:01.999584
MEAN_MOTION    = 15.93469326
ECCENTRICITY   = .0001798
INCLINATION    = 42.9965
RA_OF_ASC_NODE = 177.7927
ARG_OF_PERICENTER = 273.4023
MEAN_ANOMALY   = 92.1918

EPHEMERIS_TYPE = 0
CLASSIFICATION_TYPE = U
NORAD_CAT_ID   = 67493
ELEMENT_SET_NO = 999
REV_AT_EPOCH   = 287
BSTAR          = -.48287E-2
MEAN_MOTION_DOT = -.1784552E-1
MEAN_MOTION_DDOT = .88669E-3

CCSDS_OMM_VERS = 2.0
CREATION_DATE  = 
ORIGINATOR     = 

OBJECT_NAME    = STARLINK-36396
OBJECT_ID      = 2026-012B
CENTER_NAME    = EARTH
REF_FRAME      = TEME
TIME_SYSTEM    = UTC
MEAN_ELEMENT_THEORY = SGP/SGP4

EPOCH          = 2026-01-30T04:00:01.999584
MEAN_MOTION    = 15.93535508
ECCENTRICITY   = .0001783
INCLINATION    = 42.9963
RA_OF_ASC_NODE = 177.7880
ARG_OF_PERICENTER = 275.4233
MEAN_ANOMALY   = 92.1289

EPHEMERIS_TYPE = 0
CLASSIFICATION_TYPE = U
NORAD_CAT_ID   = 67494
ELEMENT_SET_NO = 999
REV_AT_EPOCH   = 287
BSTAR          = -.48276E-2
MEAN_MOTION_DOT = -.1790332E-1
MEAN_MOTION_DDOT = .89261E-3

