STARLINK-36269          
1 67472U 26008AD  26030.16668981 -.01720058  00000+0 -10921-1 0  9996
2 67472  43.0007  66.8971 0001405 267.9572  83.9449 15.78384592  3627
STARLINK-36408          
1 67473U 26008AE  26030.16668981 -.01810735  00000+0 -12205-1 0  9996
2 67473  43.0008  66.8796 0001391 268.9805  90.0090 15.77224547  3621
ALSAT-3A                
1 67474U 26009A   26030.12532611  .00005768  00000+0  38809-3 0  9993
2 67474  97.1797 103.5020 0099646 170.8226 189.4853 15.03046815  2251
CZ-2C R/B               
1 67475U 26009B   26030.12287170  .00010301  00000+0  43636-3 0  9994
2 67475  97.4705 104.8289 0011666 203.6513 156.4189 15.23287583  2285
TIANQI-37               
1 67476U 26010A   26030.16008354  .00000501  00000+0  33324-3 0  9990
2 67476  44.9837 338.1971 0012265  23.2829 336.8563 14.13726592  2030
TIANQI-38               
1 67477U 26010B   26030.15809145  .00000563  00000+0  36326-3 0  9990
2 67477  44.9799 338.1815 0011286  26.5629 333.5786 14.14079822  2030
TIANQI-39               
1 67478U 26010C   26030.15812741  .00000315  00000+0  23656-3 0  9994
2 67478  44.9851 338.1862 0014476  35.2219 324.9574 14.13517055  2031
TIANQI-40               
1 67479U 26010D   26027.33138086  .00000279  00000+0  21354-3 0  9996
2 67479  44.9852 351.0701 0011609   6.7830 353.3164 14.14461443  1632
SZ-20 MODULE            
1 67481U 25082C   26030.16607663  .00028043  00000+0  31425-3 0  9993
2 67481  41.4796  82.1898 0006337  47.3175 312.8198 15.62028588271592
ION SCV-021             
1 67483U 25276DT  26030.17688247  .00001495  00000+0  13245-3 0  9990
2 67483  97.5422 105.6306 0010638 231.6962 128.3304 14.97659769  1956
STARLINK-36551          
1 67493U 26012A   26030.16668981 -.01784552  88669-3 -48287-2 0  9991
2 67493  42.9965 177.7927 0001798 273.4023  92.1918 15.93469326  2877
STARLINK-36396          
1 67494U 26012B   26030.16668981 -.01790332  89261-3 -48276-2 0  9992
2 67494  42.9963 177.7880 0001783 275.4233  92.1289 15.93535508  2870
